#aV2024  6  5  0  0  0.00000000     288 DD+AD WGS84 FIT  NGA
## 2317 259200.00000000   300.00000000 60466 0.0000000000000
+   31     2  3  4  5  6  7  8  9 10 11 12 13 14 15 16 17 18
+         19 20 21 22 23 24 25 26 27 28 29 30 31 32  0  0  0
+          0  0  0  0  0  0  0  0  0  0  0  0  0  0  0  0  0
+          0  0  0  0  0  0  0  0  0  0  0  0  0  0  0  0  0
+          0  0  0  0  0  0  0  0  0  0  0  0  0  0  0  0  0
++         2  2  2  2  2  2  2  2  2  2  2  2  2  2  2  2  2
++         2  2  2  2  2  2  2  2  2  2  2  2  2  2  0  0  0
++         0  0  0  0  0  0  0  0  0  0  0  0  0  0  0  0  0
++         0  0  0  0  0  0  0  0  0  0  0  0  0  0  0  0  0
++         0  0  0  0  0  0  0  0  0  0  0  0  0  0  0  0  0
%c cc cc ccc ccc cccc cccc cccc cccc ccccc ccccc ccccc ccccc
%c cc cc ccc ccc cccc cccc cccc cccc ccccc ccccc ccccc ccccc
%f  0.0000000  0.000000000  0.00000000000  0.000000000000000
%f  0.0000000  0.000000000  0.00000000000  0.000000000000000
%i    0    0    0    0      0      0      0      0         0
%i    0    0    0    0      0      0      0      0         0
/*      NGA, ST. LOUIS,MO.                                  
/*   EPHEMERIS COMPUTED FROM 2 DAYS OF DATA                 
/*   EPOCHA v9 SMOOTHER                                     
/*   G2296 IERS2010 SATIGS SATAPC                           
*  2024  6  5 15 40  0.00000000
P  2  21781.457965  12263.345201   9879.235618   -423.259523                    
V  2   6861.413245   9757.726160 -28346.791057      0.069540                    
P  3  14782.067068   1772.451655  21827.620270    399.111791                    
V  3  -9375.141357  26425.619156   4292.135641      0.184673                    
P  4  25362.963405   1953.031238   7895.724108    376.742961                    
V  4  -9529.062349   3766.425751  29611.795839      0.081792                    
P  5  -8002.291649 -17240.448778 -18695.201103   -175.258470                    
V  5   8184.639665 -21926.599298  16965.025289     -0.013505                    
P  6    266.897748 -18996.747305  18572.367288    235.104977                    
V  6  15639.356546  17482.134364  17819.037066     -0.207413                    
P  7  15910.032201  -3832.857863 -20487.181301   -102.028840                    
V  7  16879.403868  21277.290651   8447.063723      0.119756                    
P  8  19429.461049   7950.537850 -16626.430457    215.086796                    
V  8 -19958.963598   5957.677866 -20190.431344      0.187745                    
P  9  25062.542623  -7952.880255  -4026.430574    223.277353                    
V  9   5461.303271   1746.058591  31122.219581      0.144266                    
P 10 -10450.150106  24092.284969  -2329.765171    -36.590981                    
V 10  -1084.843643  -3838.739782 -32309.753568     -0.077488                    
P 11 -10652.362517 -23043.638715   7927.948049   -678.887177                    
V 11   7996.391035   6500.540977  29667.875138     -0.084632                    
P 12 -14252.385651  -4916.954235  21583.523776   -511.538024                    
V 12  11243.672312 -25727.310256   1592.022265     -0.032491                    
P 13 -11117.580318 -13490.626490 -20272.742558    655.801514                    
V 13  25140.753501  -1665.283594 -12580.724395      0.027075                    
P 14  13294.411857 -22049.651012  -6012.286384    418.185117                    
V 14    286.673408   8426.280763 -30303.506678      0.091632                    
P 15 -20087.773834  -6268.092599 -16817.829146    166.849135                    
V 15  18687.263561  -8485.730782 -19558.459794      0.041570                    
P 16   4035.672253  19846.411428 -17275.508614   -272.517747                    
V 16 -10766.004192  18670.071100  19745.241750      0.103125                    
P 17  16889.050063 -13164.443801  16235.518566    698.661906                    
V 17  19807.013859   -743.416909 -21615.621351     -0.049071                    
P 18 -14980.077389   4635.555754 -21453.458743   -620.915288                    
V 18 -16755.451938 -21425.781914   6870.994069     -0.051808                    
P 19   7449.875249 -14705.063793  20558.034084    492.173463                    
V 19  26595.114479   -796.710688 -10507.141840      0.053660                    
P 20  -3254.508847 -24273.725803 -10404.010484    374.160974                    
V 20   4797.418482 -12624.367322  27645.079978     -0.005251                    
P 21  21216.976745  16296.509513   4838.502989    117.323516                    
V 21   2563.619681   5119.086975 -30343.989478     -0.023382                    
P 22   9528.978188 -24850.249622   2779.300845    -23.340357                    
V 22   3535.250286  -1645.627067 -31327.589299     -0.050464                    
P 23 -15218.474661  16855.735884 -13584.837157    243.034038                    
V 23   3681.625940 -17040.401372 -25416.840587      0.092276                    
P 24 -21551.278177 -14202.007299   6697.056953   -475.559141                    
V 24  -4150.341359  -8599.642795 -29314.708452     -0.028448                    
P 25 -16696.946395   6197.028417  19287.897228    496.901922                    
V 25   6756.054228 -24462.824038  13729.609009      0.005654                    
P 26  -3230.297403  25712.904882  -4992.642534    141.841032                    
V 26  -5455.401525   4979.140137  30450.323637     -0.060818                    
P 27   8309.724327  13718.179787 -21521.824758    -27.085104                    
V 27 -26074.190908   5170.322468  -6448.771789     -0.014975                    
P 28  -2142.380362  17962.149329  19437.765351   -275.448040                    
V 28 -17430.780785 -17551.624649  14288.251403     -0.170615                    
P 29 -26340.876150   3619.920101  -1453.800306   -595.535343                    
V 29  -2001.678190  -2193.767255  31836.300264      0.015812                    
P 30   7743.425079 -14506.922597 -20663.039061   -379.104394                    
V 30  17927.221604  19850.887771  -7433.971705      0.060596                    
P 31   7035.026647  22324.963680  11956.085014   -227.551281                    
V 31 -12053.721043 -10429.257254  26486.137330      0.001634                    
P 32 -13813.983514  14834.514092  17270.994544   -617.043279                    
V 32 -21549.931407   2231.876242 -19587.855284      0.009057                    
EOF
